OBJECT_NAME,OBJECT_ID,EPOCH,MEAN_MOTION,ECCENTRICITY,INCLINATION,RA_OF_ASC_NODE,ARG_OF_PERICENTER,MEAN_ANOMALY,EPHEMERIS_TYPE,CLASSIFICATION_TYPE,NORAD_CAT_ID,ELEMENT_SET_NO,REV_AT_EPOCH,BSTAR,MEAN_MOTION_DOT,MEAN_MOTION_DDOT
ONEWEB-0339,2021-083V,2026-06-14T11:00:32.222592,13.13471286,.0001633,87.8949,320.7698,103.1542,256.9769,0,U,49205,999,23053,-.8316E-3,-.291E-5,0
ONEWEB-0340,2021-083W,2026-06-14T11:28:06.199392,13.18685429,.0001973,87.9169,335.9942,91.2439,268.8920,0,U,49206,999,22961,.67966E-4,.4E-6,0
ONEWEB-0341,2021-083X,2026-06-14T11:37:49.076256,13.18685967,.0002184,87.9162,335.9962,102.7471,257.3905,0,U,49207,999,22963,.84464E-4,.46E-6,0
ONEWEB-0342,2021-083Y,2026-06-14T13:08:56.106240,13.20771036,.0001941,87.9192,274.9627,102.8777,257.2573,0,U,49208,999,23643,.20413E-3,.96E-6,0
ONEWEB-0343,2021-083Z,2026-06-14T11:49:57.753984,13.18686742,.0001577,87.9166,335.9933,103.6734,256.4574,0,U,49209,999,22968,.18266E-3,.85E-6,0
ONEWEB-0344,2021-083AA,2026-06-14T10:53:12.894144,13.13472285,.0002115,87.8940,320.7849,103.6475,256.4890,0,U,49210,999,23053,-.53651E-3,-.183E-5,0
ONEWEB-0345,2021-083AB,2026-06-14T10:41:01.862016,13.13470781,.0002039,87.8960,320.7672,103.2956,256.8401,0,U,49211,999,23054,-.36838E-3,-.122E-5,0
ONEWEB-0346,2021-083AC,2026-06-14T11:45:06.109920,13.18686601,.0002388,87.9159,335.9943,81.7337,278.4066,0,U,49212,999,22962,.14886E-3,.72E-6,0
ONEWEB-0348,2021-083AD,2026-06-14T12:54:23.203584,13.20770763,.0002477,87.9194,274.9686,98.1497,261.9918,0,U,49213,999,23646,-.11465E-3,-.34E-6,0
ONEWEB-0350,2021-083AE,2026-06-14T11:03:26.341056,13.12943889,.0002085,87.8956,320.7684,100.1251,260.0114,0,U,49214,999,23057,-.92006E-3,-.321E-5,0
ONEWEB-0351,2021-083AF,2026-06-14T12:44:28.750848,13.20769961,.0001919,87.9194,274.9686,126.5092,233.6218,0,U,49215,999,23642,-.21909E-3,-.76E-6,0
ONEWEB-0352,2021-083AG,2026-06-14T10:26:25.196640,13.13470205,.0001593,87.8951,320.7806,108.1821,251.9482,0,U,49216,999,23066,.4962E-3,.194E-5,0
ONEWEB-0354,2021-083AH,2026-06-14T13:23:28.912992,13.20773213,.0002397,87.9195,274.9623,101.3585,258.7818,0,U,49217,999,23646,.40508E-3,.178E-5,0
ONEWEB-0355,2021-083AJ,2026-06-14T11:08:03.375744,13.13470143,.0001848,87.8947,320.7763,103.6895,256.4440,0,U,49218,999,23054,-.72439E-3,-.252E-5,0
ONEWEB-0357,2021-083AK,2026-06-14T13:18:37.944576,13.20772856,.0001929,87.9193,274.9571,106.3728,253.7617,0,U,49219,999,23646,.36347E-3,.161E-5,0
ONEWEB-0332,2021-090A,2026-06-14T09:39:16.072704,13.14501641,.000168,87.8960,290.2640,100.4310,259.7009,0,U,49279,999,22721,.70637E-3,.275E-5,0
ONEWEB-0347,2021-090B,2026-06-14T07:36:49.072896,13.20771205,.0001731,87.9192,275.0124,98.9097,261.2232,0,U,49280,999,23066,.25659E-3,.117E-5,0
ONEWEB-0349,2021-090C,2026-06-14T08:22:53.012352,13.20772104,.0001994,87.9195,275.0068,101.3450,258.7907,0,U,49281,999,22945,-.48198E-4,-.7E-7,0
ONEWEB-0353,2021-090D,2026-06-14T09:27:51.999840,13.14503319,.0001642,87.8962,290.2613,98.7283,261.4032,0,U,49282,999,22721,.97637E-4,.49E-6,0
ONEWEB-0356,2021-090E,2026-06-14T06:31:21.662400,13.20773102,.0002152,87.9194,275.0155,78.3853,281.7522,0,U,49283,999,22944,.12413E-3,.63E-6,0
ONEWEB-0358,2021-090F,2026-06-14T12:44:29.188032,13.20237149,.0002109,87.9195,274.9688,95.9320,264.2053,0,U,49284,999,23020,-.15167E-3,-.48E-6,0
ONEWEB-0359,2021-090G,2026-06-14T08:59:14.220960,13.20773168,.0002252,87.9192,274.9948,100.2519,259.8868,0,U,49285,999,23016,-.27577E-4,.2E-7,0
ONEWEB-0360,2021-090H,2026-06-14T06:55:35.491872,13.20782228,.000208,87.9192,275.0182,102.4131,257.7235,0,U,49286,999,22946,.26726E-2,.11E-4,0
ONEWEB-0361,2021-090J,2026-06-14T06:28:55.934976,13.20770753,.0002093,87.9195,275.0202,99.0151,261.1219,0,U,49287,999,22991,.18343E-3,.88E-6,0
ONEWEB-0362,2021-090K,2026-06-14T08:55:40.935648,13.19724861,.0001887,87.9167,305.5388,106.7940,253.3400,0,U,49288,999,22654,.62488E-5,.15E-6,0
ONEWEB-0363,2021-090L,2026-06-14T08:39:50.100192,13.20770134,.0002068,87.9194,275.0024,91.4175,268.7195,0,U,49289,999,22993,-.11098E-3,-.32E-6,0
ONEWEB-0364,2021-090M,2026-06-14T13:13:46.767072,13.20771544,.0002006,87.9191,274.9724,100.9476,259.1883,0,U,49290,999,23109,.16393E-3,.8E-6,0
ONEWEB-0365,2021-090N,2026-06-14T09:09:20.183904,13.19724630,.0001773,87.9173,305.5253,100.0980,260.0352,0,U,49291,999,22605,.51111E-6,.13E-6,0
ONEWEB-0366,2021-090P,2026-06-14T09:23:17.775744,13.14502566,.0001942,87.8960,290.2638,100.4410,259.6938,0,U,49292,999,22719,-.12008E-3,-.32E-6,0
ONEWEB-0367,2021-090Q,2026-06-14T08:38:39.655680,13.20722687,.000191,87.9195,275.0037,132.0432,228.0864,0,U,49293,999,22945,.24549E-1,.9998E-4,0
