ONEWEB-0339             
1 49205U 21083V   26165.45870628 -.00000291  00000+0 -83160-3 0  9998
2 49205  87.8949 320.7698 0001633 103.1542 256.9769 13.13471286230534
ONEWEB-0340             
1 49206U 21083W   26165.47784953  .00000040  00000+0  67966-4 0  9993
2 49206  87.9169 335.9942 0001973  91.2439 268.8920 13.18685429229618
ONEWEB-0341             
1 49207U 21083X   26165.48459579  .00000046  00000+0  84464-4 0  9996
2 49207  87.9162 335.9962 0002184 102.7471 257.3905 13.18685967229638
ONEWEB-0342             
1 49208U 21083Y   26165.54787160  .00000096  00000+0  20413-3 0  9992
2 49208  87.9192 274.9627 0001941 102.8777 257.2573 13.20771036236434
ONEWEB-0343             
1 49209U 21083Z   26165.49302956  .00000085  00000+0  18266-3 0  9994
2 49209  87.9166 335.9933 0001577 103.6734 256.4574 13.18686742229688
ONEWEB-0344             
1 49210U 21083AA  26165.45362146 -.00000183  00000+0 -53651-3 0  9997
2 49210  87.8940 320.7849 0002115 103.6475 256.4890 13.13472285230535
ONEWEB-0345             
1 49211U 21083AB  26165.44516044 -.00000122  00000+0 -36838-3 0  9996
2 49211  87.8960 320.7672 0002039 103.2956 256.8401 13.13470781230549
ONEWEB-0346             
1 49212U 21083AC  26165.48965405  .00000072  00000+0  14886-3 0  9991
2 49212  87.9159 335.9943 0002388  81.7337 278.4066 13.18686601229629
ONEWEB-0348             
1 49213U 21083AD  26165.53776856 -.00000034  00000+0 -11465-3 0  9998
2 49213  87.9194 274.9686 0002477  98.1497 261.9918 13.20770763236462
ONEWEB-0350             
1 49214U 21083AE  26165.46072154 -.00000321  00000+0 -92006-3 0  9990
2 49214  87.8956 320.7684 0002085 100.1251 260.0114 13.12943889230579
ONEWEB-0351             
1 49215U 21083AF  26165.53088832 -.00000076  00000+0 -21909-3 0  9990
2 49215  87.9194 274.9686 0001919 126.5092 233.6218 13.20769961236424
ONEWEB-0352             
1 49216U 21083AG  26165.43501385  .00000194  00000+0  49620-3 0  9992
2 49216  87.8951 320.7806 0001593 108.1821 251.9482 13.13470205230661
ONEWEB-0354             
1 49217U 21083AH  26165.55797353  .00000178  00000+0  40508-3 0  9996
2 49217  87.9195 274.9623 0002397 101.3585 258.7818 13.20773213236460
ONEWEB-0355             
1 49218U 21083AJ  26165.46392796 -.00000252  00000+0 -72439-3 0  9992
2 49218  87.8947 320.7763 0001848 103.6895 256.4440 13.13470143230546
ONEWEB-0357             
1 49219U 21083AK  26165.55460584  .00000161  00000+0  36347-3 0  9999
2 49219  87.9193 274.9571 0001929 106.3728 253.7617 13.20772856236460
ONEWEB-0332             
1 49279U 21090A   26165.40226936  .00000275  00000+0  70637-3 0  9994
2 49279  87.8960 290.2640 0001680 100.4310 259.7009 13.14501641227210
ONEWEB-0347             
1 49280U 21090B   26165.31723464  .00000117  00000+0  25659-3 0  9993
2 49280  87.9192 275.0124 0001731  98.9097 261.2232 13.20771205230669
ONEWEB-0349             
1 49281U 21090C   26165.34922468 -.00000007  00000+0 -48198-4 0  9996
2 49281  87.9195 275.0068 0001994 101.3450 258.7907 13.20772104229457
ONEWEB-0353             
1 49282U 21090D   26165.39435185  .00000049  00000+0  97637-4 0  9993
2 49282  87.8962 290.2613 0001642  98.7283 261.4032 13.14503319227212
ONEWEB-0356             
1 49283U 21090E   26165.27177850  .00000063  00000+0  12413-3 0  9997
2 49283  87.9194 275.0155 0002152  78.3853 281.7522 13.20773102229449
ONEWEB-0358             
1 49284U 21090F   26165.53089338 -.00000048  00000+0 -15167-3 0  9994
2 49284  87.9195 274.9688 0002109  95.9320 264.2053 13.20237149230203
ONEWEB-0359             
1 49285U 21090G   26165.37447015  .00000002  00000+0 -27577-4 0  9995
2 49285  87.9192 274.9948 0002252 100.2519 259.8868 13.20773168230164
ONEWEB-0360             
1 49286U 21090H   26165.28860523  .00001100  00000+0  26726-2 0  9991
2 49286  87.9192 275.0182 0002080 102.4131 257.7235 13.20782228229463
ONEWEB-0361             
1 49287U 21090J   26165.27009184  .00000088  00000+0  18343-3 0  9990
2 49287  87.9195 275.0202 0002093  99.0151 261.1219 13.20770753229918
ONEWEB-0362             
1 49288U 21090K   26165.37200157  .00000015  00000+0  62488-5 0  9996
2 49288  87.9167 305.5388 0001887 106.7940 253.3400 13.19724861226542
ONEWEB-0363             
1 49289U 21090L   26165.36099653 -.00000032  00000+0 -11098-3 0  9993
2 49289  87.9194 275.0024 0002068  91.4175 268.7195 13.20770134229936
ONEWEB-0364             
1 49290U 21090M   26165.55123573  .00000080  00000+0  16393-3 0  9999
2 49290  87.9191 274.9724 0002006 100.9476 259.1883 13.20771544231096
ONEWEB-0365             
1 49291U 21090N   26165.38148361  .00000013  00000+0  51111-6 0  9999
2 49291  87.9173 305.5253 0001773 100.0980 260.0352 13.19724630226050
ONEWEB-0366             
1 49292U 21090P   26165.39117796 -.00000032  00000+0 -12008-3 0  9991
2 49292  87.8960 290.2638 0001942 100.4410 259.6938 13.14502566227198
ONEWEB-0367             
1 49293U 21090Q   26165.36018120  .00009998  00000+0  24549-1 0  9999
2 49293  87.9195 275.0037 0001910 132.0432 228.0864 13.20722687229458
